#aV2012  1 22  0  0   .00000000      96 DD+AD WGS84 FIT  NGA
## 1672       .00000000   900.00000000 55948  .0000000000000
+   31     1  2  3  4  5  6  7  8  9 10 11 12 13 14 15 16 17
+         18 19 20 21 22 23 25 26 27 28 29 30 31 32  0  0  0
+          0  0  0  0  0  0  0  0  0  0  0  0  0  0  0  0  0
+          0  0  0  0  0  0  0  0  0  0  0  0  0  0  0  0  0
+          0  0  0  0  0  0  0  0  0  0  0  0  0  0  0  0  0
++         0  0  0  0  0  0  0  0  0  0  0  0  0  0  0  0  0
++         0  0  0  0  0  0  0  0  0  0  0  0  0  0  0  0  0
++         0  0  0  0  0  0  0  0  0  0  0  0  0  0  0  0  0
++         0  0  0  0  0  0  0  0  0  0  0  0  0  0  0  0  0
++         0  0  0  0  0  0  0  0  0  0  0  0  0  0  0  0  0
%c cc cc ccc ccc cccc cccc cccc cccc ccccc ccccc ccccc ccccc
%c cc cc ccc ccc cccc cccc cccc cccc ccccc ccccc ccccc ccccc
%f  0.0000000  0.000000000  0.00000000000  0.000000000000000
%f  0.0000000  0.000000000  0.00000000000  0.000000000000000
%i    0    0    0    0      0      0      0      0         0
%i    0    0    0    0      0      0      0      0         0
/*      NGA, ST. LOUIS,MO.                                  
/*   EPHEMERIS COMPUTED FROM  3 DAYS OF DATA                
/* CCCCCCCCCCCCCCCCCCCCCCCCCCCCCCCCCCCCCCCCCCCCCCCCCCCCCCCCC
/* CCCCCCCCCCCCCCCCCCCCCCCCCCCCCCCCCCCCCCCCCCCCCCCCCCCCCCCCC
*  2012  1 22  1 30   .00000000                                                 
P  1 -22731.377904 -13200.478421   3840.044494    188.430024                    
V  1  -2314.842502  -5142.199689 -31227.016442       .121470                    
P  2   8005.622530  20006.921276  15934.798429    375.718220                    
V  2 -17425.994841  -9892.360575  20793.119708       .016116                    
P  3  -1382.597439 -17128.986866 -20648.320166    825.160710                    
V  3  22314.191626 -12150.770034   9067.556043       .049788                    
P  4  -4892.886244  15372.725523  20813.387251     70.537784                    
V  4 -22370.317251 -15369.480605   6347.938278       .113538                    
P  5   3112.285519  25011.078259  -8197.074776   -273.450840                    
V  5  -4102.557548  10034.567736  29269.300104      -.045874                    
P  6   3997.075784 -17749.934840 -19127.473538     25.998852                    
V  6  22856.272378  -9616.283026  13875.150807       .025825                    
P  7 -21184.704676  -2473.516175 -15958.882681     51.581987                    
V  7 -15198.590746 -13352.964330  21977.350982       .026289                    
P  8 -13833.162064   6482.871333 -21749.655774       .449119                    
V  8 -20495.327691 -18440.755177   6968.129402       .001985                    
P  9  21305.964949  15828.780705   -714.766762    133.386258                    
V  9  -1413.490486   1562.985244 -32272.260265       .024388                    
P 10  -9801.013253  22509.786797   9363.740267    -26.427379                    
V 10  -1649.701809 -12715.412633  28503.414599      -.011958                    
P 11 -22535.169725 -13445.788662  -5461.460787   -225.122526                    
V 11   7721.585597  -1917.281411 -28803.465974      -.035699                    
P 12  11931.155337  12746.423686  20077.499460     47.967028                    
V 12  -4211.279609  25035.807908 -13221.500366       .022026                    
P 13 -25554.640962   4691.512320   5583.136754    229.385906                    
V 13   6267.808374  -4061.078642  31241.174613      -.021238                    
P 14  17878.994759 -15316.133764  12335.609547    190.956821                    
V 14  15112.405724  -3518.632834 -26786.039468       .014711                    
P 15  16151.702322   8028.591092 -19563.180897    -94.219067                    
V 15 -21996.691128  11567.497829 -13209.439525       .006468                    
P 16  -1410.522554 -25201.733711  -7729.882978   -219.918754                    
V 16   3808.740133  -9433.546028  30290.279883      -.017461                    
P 17 -19579.729173  15016.048412   9657.561899    153.385683                    
V 17 -12223.639165   2032.786161 -28652.007542      -.021957                    
P 18  15583.898277  -8330.241676 -19383.854405    177.889974                    
V 18  -1420.435639  25592.553431 -12291.849893       .018065                    
P 19 -13080.019819 -10783.710810 -20570.579590   -227.996494                    
V 19  24349.325906  -9005.369443 -10412.832901      -.038576                    
P 20 -14212.636143  -9952.146854  19967.689581     60.488575                    
V 20   3048.259454 -25654.738111 -10458.182903       .006596                    
P 21  19665.496582  -1641.086113 -17584.407033   -199.208495                    
V 21  17407.048362  15331.308899  16994.201111      -.025618                    
P 22  10586.464666 -21915.936455 -10325.837176    142.938962                    
V 22   1759.481143  13799.902269 -27143.751502       .001363                    
P 23 -22123.031028  -1908.845198  14864.633734    239.842192                    
V 23  16513.585953  -8916.531181  23121.419521      -.033345                    
P 25  15149.021479   -438.309513  21787.841976     31.209456                    
V 25  -2571.659235  27582.303964   2381.064162       .002062                    
P 26   2585.827512  14852.269474 -22449.439619   -308.028784                    
V 26 -25656.278599   8431.521813   3076.640827      -.143672                    
P 27  18859.886272  17752.871109  -6201.043389    348.740790                    
V 27  -8147.966501  -3307.875467 -30635.258204       .038998                    
P 28 -11800.006346  19631.658059 -12688.527761    105.054365                    
V 28    526.246214 -17202.942174 -26223.386945       .036876                    
P 29  25146.026524  -4198.599732   7443.963080    277.394309                    
V 29  -7799.165141   5810.625075  29924.099615       .035626                    
P 30   2020.222160 -26327.244748   2464.921828    -17.398324                    
V 30   2883.032314   3592.368266  31498.857440      -.128601                    
P 31   2705.136283 -15860.518283  21288.918818    198.540582                    
V 31  21555.708526  15521.860730   9136.946003       .047158                    
P 32  -8800.742040 -18582.160380  17291.593852   -396.170198                    
V 32   5733.944111 -20633.434611 -19053.530277      -.056444                    
EOF
